     2.10           N: GPS NAV DATA                         RINEX VERSION / TYPE
teqc  2008Oct2      gpsops              20090118 00:05:47UTCPGM / RUN BY / DATE
Linux 2.4.20-8|Pentium IV|gcc -static|Linux|486/DX+         COMMENT
soc2rnx ver 1.20    gpsops              18-Jan-2009 00:05:41COMMENT
Forced Modulo Decimation to 30 seconds                      COMMENT
MADR                                    MARKER NAME         COMMENT
13407S012                               MARKER NUMBER       COMMENT
4849202.3940 -360328.9929 4114913.1862                      COMMENT
                                                            COMMENT
This data is provided as a public service by NASA/JPL.      COMMENT
No warranty is expressed or implied regarding suitability   COMMENT
for use.  For further information, contact:                 COMMENT
Dave Stowers, NASA/JPL m/s 238-600                          COMMENT
4800 Oak Grove Drive, Pasadena CA 91109 USA                 COMMENT
                                                            END OF HEADER
 3 09  1 17 10  0  0.0 3.401110880077D-04 5.343281372916D-12 0.000000000000D+00
    2.300000000000D+01-2.090625000000D+01 5.399510625576D-09 5.506239922480D-01
   -8.903443813324D-07 1.160309941042D-02 9.490177035332D-06 5.153729038239D+03
    5.544000000000D+05-8.754432201385D-08 8.245069288002D-01 1.303851604462D-07
    9.261816678241D-01 1.781250000000D+02 8.881948362401D-01-8.536069847286D-09
   -3.367997433469D-10 1.000000000000D+00 1.514000000000D+03 0.000000000000D+00
    2.000000000000D+00 0.000000000000D+00-4.190951585770D-09 2.300000000000D+01
    5.472000000000D+05
 6 09  1 17 10  0  0.0 8.955737575889D-05-1.227817847393D-11 0.000000000000D+00
    1.030000000000D+02-1.787500000000D+01 5.111641491814D-09 3.086805919480D+00
   -8.624047040939D-07 5.646736477502D-03 9.700655937195D-06 5.153714784622D+03
    5.544000000000D+05 1.732259988785D-07 8.910337779905D-01 2.980232238770D-08
    9.336509764365D-01 1.739687500000D+02-1.478417403733D+00-8.163554330520D-09
   -2.300095808223D-10 1.000000000000D+00 1.514000000000D+03 0.000000000000D+00
    2.000000000000D+00 0.000000000000D+00-4.656612873077D-09 1.030000000000D+02
    5.472000000000D+05
16 09  1 17  9 59 44.0 8.140224963427D-05-2.728484105319D-12 0.000000000000D+00
    7.000000000000D+00-4.065625000000D+01 4.664837166335D-09 3.046049668401D+00
   -2.020969986916D-06 4.960431018844D-03 6.267800927162D-06 5.153741668701D+03
    5.543840000000D+05-7.823109626770D-08-9.079979223295D-02 5.029141902924D-08
    9.676854085986D-01 2.628437500000D+02-3.862138970962D-01-8.023548498715D-09
   -2.178662178596D-11 1.000000000000D+00 1.514000000000D+03 0.000000000000D+00
    2.000000000000D+00 0.000000000000D+00-9.778887033463D-09 7.000000000000D+00
    5.472000000000D+05
29 09  1 17 10  0  0.0-1.750094816089D-05 2.728484105319D-12 0.000000000000D+00
    4.700000000000D+01-9.500000000000D+00 4.431613165905D-09-1.780925090107D+00
   -5.587935447693D-07 3.232375718653D-03 9.708106517792D-06 5.153758895874D+03
    5.544000000000D+05-3.352761268616D-08 9.588888865767D-01 1.303851604462D-07
    9.597957568087D-01 1.899375000000D+02-1.341719237020D+00-7.901043395886D-09
   -2.135803250493D-10 1.000000000000D+00 1.514000000000D+03 0.000000000000D+00
    2.000000000000D+00 0.000000000000D+00-8.847564458847D-09 4.700000000000D+01
    5.472000000000D+05
30 09  1 17 10  0  0.0 1.203231513500D-04 2.273736754432D-12 0.000000000000D+00
    2.800000000000D+01-3.662500000000D+01 4.948063249553D-09 2.801400115571D+00
   -1.883134245872D-06 1.116683788132D-02 5.634501576424D-06 5.153648729324D+03
    5.544000000000D+05 1.341104507446D-07-1.531723929536D-01-1.396983861923D-07
    9.510969401595D-01 2.617187500000D+02 1.414880058359D+00-8.126052768429D-09
   -2.500104139373D-11 1.000000000000D+00 1.514000000000D+03 0.000000000000D+00
    2.000000000000D+00 0.000000000000D+00-7.916241884232D-09 2.800000000000D+01
    5.472000000000D+05
31 09  1 17 10  0  0.0-4.804134368896D-05-1.477928890381D-12 0.000000000000D+00
    6.500000000000D+01 4.437500000000D+00 4.426612957626D-09-9.828487373550D-01
    1.378357410431D-07 7.145647658035D-03 8.061528205872D-06 5.153623001099D+03
    5.544000000000D+05-1.229345798492D-07-1.161513610138D+00 3.352761268616D-08
    9.708994747288D-01 2.332500000000D+02-1.208451898472D+00-8.121766875619D-09
    3.871589838686D-10 1.000000000000D+00 1.514000000000D+03 0.000000000000D+00
    2.000000000000D+00 0.000000000000D+00-1.303851604462D-08 6.500000000000D+01
    5.472000000000D+05
22 09  1 17 10  0  0.0 2.064974978566D-04-5.684341886081D-13 0.000000000000D+00
    7.700000000000D+01 8.156250000000D+00 5.075568560661D-09 2.028251926388D+00
    4.600733518600D-07 4.937669145875D-03 4.395842552185D-06 5.153665246964D+03
    5.544000000000D+05 5.587935447693D-08 3.067980182626D+00-1.657754182816D-07
    9.421592289879D-01 2.846250000000D+02-1.813242543596D+00-8.415707690862D-09
   -7.428880871279D-11 1.000000000000D+00 1.514000000000D+03 0.000000000000D+00
    2.800000000000D+00 0.000000000000D+00-1.816079020500D-08 7.700000000000D+01
    5.486400000000D+05
18 09  1 17 10  0  0.0-9.227544069290D-05 3.637978807092D-12 0.000000000000D+00
    9.300000000000D+01 1.118750000000D+01 4.884489172866D-09-3.109236927238D+00
    5.587935447693D-07 9.889089269564D-03 4.369765520096D-06 5.153750270844D+03
    5.544000000000D+05-9.313225746155D-09 3.062009874968D+00-1.490116119385D-07
    9.444999476540D-01 2.867812500000D+02-2.436841032622D+00-8.233557246422D-09
   -8.571785620706D-11 1.000000000000D+00 1.514000000000D+03 0.000000000000D+00
    2.000000000000D+00 0.000000000000D+00-1.071020960808D-08 9.300000000000D+01
    5.495400000000D+05
25 09  1 17 10  0  0.0 1.798314042389D-04 2.637534635141D-11 0.000000000000D+00
    3.700000000000D+01-9.312500000000D+00 4.252319983339D-09-2.690601734339D+00
   -3.892928361893D-07 1.179609715473D-02 7.992610335350D-06 5.153680744171D+03
    5.544000000000D+05 8.754432201385D-08-1.253561227605D+00 1.844018697739D-07
    9.678123416116D-01 2.253125000000D+02-1.237300565461D+00-7.778895450791D-09
    3.793015137162D-10 1.000000000000D+00 1.514000000000D+03 0.000000000000D+00
    2.000000000000D+00 0.000000000000D+00-7.450580596924D-09 3.700000000000D+01
    5.502000000000D+05
19 09  1 17 10  0  0.0 3.372272476554D-05-4.547473508865D-13 0.000000000000D+00
    3.500000000000D+01-5.625000000000D+00 4.544117852177D-09 1.225057051492D+00
   -2.160668373108D-07 5.066882236861D-03 1.008622348309D-05 5.153778005600D+03
    5.544000000000D+05 1.136213541031D-07 1.007133726065D+00 3.725290298462D-08
    9.573193466391D-01 1.781250000000D+02-3.930122383315D-01-7.936759169305D-09
   -2.807259790781D-10 1.000000000000D+00 1.514000000000D+03 0.000000000000D+00
    2.000000000000D+00 0.000000000000D+00-1.443549990654D-08 3.500000000000D+01
    5.504700000000D+05
 7 09  1 17 10  0  0.0 2.329284325242D-05-2.273736754432D-13 0.000000000000D+00
    4.900000000000D+01-1.068750000000D+01 4.430541692702D-09-9.159055928814D-01
   -5.904585123062D-07 2.306812210009D-03 7.767230272293D-06 5.153682092667D+03
    5.544000000000D+05 3.911554813385D-08-1.158771295590D+00 1.490116119385D-08
    9.654846502310D-01 2.315937500000D+02 2.922157817797D+00-8.062121534008D-09
    3.703725703613D-10 1.000000000000D+00 1.514000000000D+03 0.000000000000D+00
    2.000000000000D+00 0.000000000000D+00-1.071020960808D-08 4.900000000000D+01
    5.531400000000D+05
18 09  1 17 12  0  0.0-9.224889799953D-05 3.637978807092D-12 0.000000000000D+00
    9.400000000000D+01 1.693750000000D+01 4.881274753258D-09-2.059083988450D+00
    8.288770914078D-07 9.888376574963D-03 4.470348358154D-06 5.153751564026D+03
    5.616000000000D+05 8.568167686462D-08 3.061950062099D+00-1.136213541031D-07
    9.444995190190D-01 2.847812500000D+02-2.436857721591D+00-8.268201546639D-09
   -1.892935991239D-11 1.000000000000D+00 1.514000000000D+03 0.000000000000D+00
    2.800000000000D+00 0.000000000000D+00-1.071020960808D-08 9.400000000000D+01
    5.544000000000D+05
 7 09  1 17 12  0  0.0 2.329144626856D-05-2.273736754432D-13 0.000000000000D+00
    5.000000000000D+01-4.281250000000D+00 4.462685888780D-09 1.341268833802D-01
   -2.458691596985D-07 2.305887290277D-03 7.919967174530D-06 5.153680242538D+03
    5.616000000000D+05 2.980232238770D-08-1.158829336865D+00 3.166496753693D-08
    9.654872644657D-01 2.285000000000D+02 2.922301060883D+00-8.074622054705D-09
    3.671581507536D-10 1.000000000000D+00 1.514000000000D+03 0.000000000000D+00
    2.000000000000D+00 0.000000000000D+00-1.071020960808D-08 5.000000000000D+01
    5.544000000000D+05
 3 09  1 17 12  0  0.0 3.401497378945D-04 5.343281372916D-12 0.000000000000D+00
    6.400000000000D+01-2.262500000000D+01 5.402367887450D-09 1.600767599082D+00
   -1.201406121254D-06 1.160299475305D-02 9.596347808838D-06 5.153729141235D+03
    5.616000000000D+05-2.831220626831D-07 8.244449990892D-01 1.862645149231D-08
    9.261797133655D-01 1.795000000000D+02 8.882053209739D-01-8.426065265154D-09
   -2.321525272275D-10 1.000000000000D+00 1.514000000000D+03 0.000000000000D+00
    2.000000000000D+00 0.000000000000D+00-4.190951585770D-09 6.400000000000D+01
    5.544000000000D+05
16 09  1 17 12  0  0.0 8.138269186020D-05-2.728484105319D-12 0.000000000000D+00
    8.000000000000D+00-3.906250000000D+01 4.684480841716D-09-2.184652331470D+00
   -1.994892954826D-06 4.960602615029D-03 6.403774023056D-06 5.153741413116D+03
    5.616000000000D+05-1.322478055954D-07-9.085793737493D-02-3.725290298462D-08
    9.676850326287D-01 2.617187500000D+02-3.862228091931D-01-8.086408259934D-09
   -1.071473202588D-12 1.000000000000D+00 1.514000000000D+03 0.000000000000D+00
    2.000000000000D+00 0.000000000000D+00-9.778887033463D-09 8.000000000000D+00
    5.544000000000D+05
